[{"OBJECT_NAME":"ONEWEB-0050","OBJECT_ID":"2020-020AF","EPOCH":"2026-02-02T02:16:31.176192","MEAN_MOTION":14.89854698,"ECCENTRICITY":0.00057355,"INCLINATION":88.9197,"RA_OF_ASC_NODE":251.6304,"ARG_OF_PERICENTER":95.3086,"MEAN_ANOMALY":264.8797,"EPHEMERIS_TYPE":0,"CLASSIFICATION_TYPE":"U","NORAD_CAT_ID":45453,"ELEMENT_SET_NO":999,"REV_AT_EPOCH":32026,"BSTAR":0.00021370158,"MEAN_MOTION_DOT":2.074e-5,"MEAN_MOTION_DDOT":0},{"OBJECT_NAME":"ONEWEB-0034","OBJECT_ID":"2020-020AG","EPOCH":"2026-02-02T07:25:06.437856","MEAN_MOTION":13.11420248,"ECCENTRICITY":0.00018236,"INCLINATION":87.8822,"RA_OF_ASC_NODE":47.8946,"ARG_OF_PERICENTER":90.0334,"MEAN_ANOMALY":270.1003,"EPHEMERIS_TYPE":0,"CLASSIFICATION_TYPE":"U","NORAD_CAT_ID":45454,"ELEMENT_SET_NO":999,"REV_AT_EPOCH":28491,"BSTAR":-0.00039892174,"MEAN_MOTION_DOT":-1.29e-6,"MEAN_MOTION_DDOT":0},{"OBJECT_NAME":"ONEWEB-0060","OBJECT_ID":"2020-020AH","EPOCH":"2026-02-02T06:43:36.256800","MEAN_MOTION":13.11415685,"ECCENTRICITY":0.00012467,"INCLINATION":87.8809,"RA_OF_ASC_NODE":47.914,"ARG_OF_PERICENTER":58.51,"MEAN_ANOMALY":301.615,"EPHEMERIS_TYPE":0,"CLASSIFICATION_TYPE":"U","NORAD_CAT_ID":45455,"ELEMENT_SET_NO":999,"REV_AT_EPOCH":28486,"BSTAR":-0.00052957106,"MEAN_MOTION_DOT":-1.75e-6,"MEAN_MOTION_DDOT":0},{"OBJECT_NAME":"ONEWEB-0086","OBJECT_ID":"2020-020AJ","EPOCH":"2026-02-02T06:13:05.918592","MEAN_MOTION":13.11415676,"ECCENTRICITY":0.00010973,"INCLINATION":87.8822,"RA_OF_ASC_NODE":47.9028,"ARG_OF_PERICENTER":94.6919,"MEAN_ANOMALY":265.4335,"EPHEMERIS_TYPE":0,"CLASSIFICATION_TYPE":"U","NORAD_CAT_ID":45456,"ELEMENT_SET_NO":999,"REV_AT_EPOCH":28492,"BSTAR":0.0014532103,"MEAN_MOTION_DOT":5.28e-6,"MEAN_MOTION_DDOT":0},{"OBJECT_NAME":"ONEWEB-0088","OBJECT_ID":"2020-020AK","EPOCH":"2026-02-02T02:01:37.094304","MEAN_MOTION":13.11418214,"ECCENTRICITY":0.00020571,"INCLINATION":87.8834,"RA_OF_ASC_NODE":47.8983,"ARG_OF_PERICENTER":85.0756,"MEAN_ANOMALY":275.0607,"EPHEMERIS_TYPE":0,"CLASSIFICATION_TYPE":"U","NORAD_CAT_ID":45457,"ELEMENT_SET_NO":999,"REV_AT_EPOCH":28483,"BSTAR":0.00040025733,"MEAN_MOTION_DOT":1.55e-6,"MEAN_MOTION_DDOT":0},{"OBJECT_NAME":"ONEWEB-0102","OBJECT_ID":"2020-100A","EPOCH":"2026-02-02T04:39:37.351584","MEAN_MOTION":13.1244143,"ECCENTRICITY":0.00015852,"INCLINATION":87.8942,"RA_OF_ASC_NODE":17.4789,"ARG_OF_PERICENTER":87.3386,"MEAN_ANOMALY":272.7924,"EPHEMERIS_TYPE":0,"CLASSIFICATION_TYPE":"U","NORAD_CAT_ID":47258,"ELEMENT_SET_NO":999,"REV_AT_EPOCH":24702,"BSTAR":-0.00041351251,"MEAN_MOTION_DOT":-1.36e-6,"MEAN_MOTION_DDOT":0},{"OBJECT_NAME":"ONEWEB-0109","OBJECT_ID":"2020-100B","EPOCH":"2026-02-02T04:51:48.636000","MEAN_MOTION":13.12442414,"ECCENTRICITY":0.00017906,"INCLINATION":87.8947,"RA_OF_ASC_NODE":17.4489,"ARG_OF_PERICENTER":89.9514,"MEAN_ANOMALY":270.182,"EPHEMERIS_TYPE":0,"CLASSIFICATION_TYPE":"U","NORAD_CAT_ID":47259,"ELEMENT_SET_NO":999,"REV_AT_EPOCH":24685,"BSTAR":-0.00097182476,"MEAN_MOTION_DOT":-3.37e-6,"MEAN_MOTION_DDOT":0},{"OBJECT_NAME":"ONEWEB-0110","OBJECT_ID":"2020-100C","EPOCH":"2026-02-02T00:01:30.590400","MEAN_MOTION":13.12447128,"ECCENTRICITY":0.00012916,"INCLINATION":87.8941,"RA_OF_ASC_NODE":17.4732,"ARG_OF_PERICENTER":80.2761,"MEAN_ANOMALY":279.8513,"EPHEMERIS_TYPE":0,"CLASSIFICATION_TYPE":"U","NORAD_CAT_ID":47260,"ELEMENT_SET_NO":999,"REV_AT_EPOCH":24699,"BSTAR":0.0018286199,"MEAN_MOTION_DOT":6.71e-6,"MEAN_MOTION_DDOT":0},{"OBJECT_NAME":"ONEWEB-0111","OBJECT_ID":"2020-100D","EPOCH":"2026-02-02T00:45:24.282720","MEAN_MOTION":13.12440439,"ECCENTRICITY":0.00017535,"INCLINATION":87.895,"RA_OF_ASC_NODE":17.4861,"ARG_OF_PERICENTER":81.7171,"MEAN_ANOMALY":278.4157,"EPHEMERIS_TYPE":0,"CLASSIFICATION_TYPE":"U","NORAD_CAT_ID":47261,"ELEMENT_SET_NO":999,"REV_AT_EPOCH":24683,"BSTAR":0.00042812913,"MEAN_MOTION_DOT":1.67e-6,"MEAN_MOTION_DDOT":0},{"OBJECT_NAME":"ONEWEB-0114","OBJECT_ID":"2020-100E","EPOCH":"2026-02-01T23:39:33.191712","MEAN_MOTION":13.12446204,"ECCENTRICITY":0.00020884,"INCLINATION":87.8944,"RA_OF_ASC_NODE":17.4906,"ARG_OF_PERICENTER":91.462,"MEAN_ANOMALY":268.6748,"EPHEMERIS_TYPE":0,"CLASSIFICATION_TYPE":"U","NORAD_CAT_ID":47262,"ELEMENT_SET_NO":999,"REV_AT_EPOCH":24678,"BSTAR":0.0019706248,"MEAN_MOTION_DOT":7.22e-6,"MEAN_MOTION_DDOT":0},{"OBJECT_NAME":"ONEWEB-0117","OBJECT_ID":"2020-100F","EPOCH":"2026-02-01T23:27:21.027744","MEAN_MOTION":13.12442909,"ECCENTRICITY":0.00017842,"INCLINATION":87.8946,"RA_OF_ASC_NODE":17.4874,"ARG_OF_PERICENTER":85.9969,"MEAN_ANOMALY":274.1363,"EPHEMERIS_TYPE":0,"CLASSIFICATION_TYPE":"U","NORAD_CAT_ID":47263,"ELEMENT_SET_NO":999,"REV_AT_EPOCH":24679,"BSTAR":-0.0012481882,"MEAN_MOTION_DOT":-4.36e-6,"MEAN_MOTION_DDOT":0},{"OBJECT_NAME":"ONEWEB-0118","OBJECT_ID":"2020-100G","EPOCH":"2026-02-02T05:45:29.883744","MEAN_MOTION":13.12444832,"ECCENTRICITY":0.0002169,"INCLINATION":87.8948,"RA_OF_ASC_NODE":17.4365,"ARG_OF_PERICENTER":88.0206,"MEAN_ANOMALY":272.1171,"EPHEMERIS_TYPE":0,"CLASSIFICATION_TYPE":"U","NORAD_CAT_ID":47264,"ELEMENT_SET_NO":999,"REV_AT_EPOCH":24702,"BSTAR":0.001012116,"MEAN_MOTION_DOT":3.77e-6,"MEAN_MOTION_DDOT":0},{"OBJECT_NAME":"ONEWEB-0119","OBJECT_ID":"2020-100H","EPOCH":"2026-02-01T23:02:57.425568","MEAN_MOTION":13.12441574,"ECCENTRICITY":0.00018355,"INCLINATION":87.8941,"RA_OF_ASC_NODE":17.5211,"ARG_OF_PERICENTER":84.9042,"MEAN_ANOMALY":275.2296,"EPHEMERIS_TYPE":0,"CLASSIFICATION_TYPE":"U","NORAD_CAT_ID":47265,"ELEMENT_SET_NO":999,"REV_AT_EPOCH":24696,"BSTAR":-0.00010747789,"MEAN_MOTION_DOT":-2.6e-7,"MEAN_MOTION_DDOT":0},{"OBJECT_NAME":"ONEWEB-0120","OBJECT_ID":"2020-100J","EPOCH":"2026-02-01T23:37:18.431904","MEAN_MOTION":13.12443823,"ECCENTRICITY":0.0001887,"INCLINATION":87.8935,"RA_OF_ASC_NODE":17.5178,"ARG_OF_PERICENTER":89.0326,"MEAN_ANOMALY":271.1019,"EPHEMERIS_TYPE":0,"CLASSIFICATION_TYPE":"U","NORAD_CAT_ID":47266,"ELEMENT_SET_NO":999,"REV_AT_EPOCH":24699,"BSTAR":-0.00096919514,"MEAN_MOTION_DOT":-3.36e-6,"MEAN_MOTION_DDOT":0},{"OBJECT_NAME":"ONEWEB-0121","OBJECT_ID":"2020-100K","EPOCH":"2026-02-02T04:49:22.511136","MEAN_MOTION":13.12442618,"ECCENTRICITY":0.00016401,"INCLINATION":87.8949,"RA_OF_ASC_NODE":17.4472,"ARG_OF_PERICENTER":81.8145,"MEAN_ANOMALY":278.3169,"EPHEMERIS_TYPE":0,"CLASSIFICATION_TYPE":"U","NORAD_CAT_ID":47267,"ELEMENT_SET_NO":999,"REV_AT_EPOCH":24693,"BSTAR":-0.00092112327,"MEAN_MOTION_DOT":-3.19e-6,"MEAN_MOTION_DDOT":0},{"OBJECT_NAME":"ONEWEB-0122","OBJECT_ID":"2020-100L","EPOCH":"2026-02-01T23:11:29.267808","MEAN_MOTION":13.12441598,"ECCENTRICITY":0.00017292,"INCLINATION":87.895,"RA_OF_ASC_NODE":17.4957,"ARG_OF_PERICENTER":90.2944,"MEAN_ANOMALY":269.8382,"EPHEMERIS_TYPE":0,"CLASSIFICATION_TYPE":"U","NORAD_CAT_ID":47268,"ELEMENT_SET_NO":999,"REV_AT_EPOCH":24681,"BSTAR":-0.00077904937,"MEAN_MOTION_DOT":-2.68e-6,"MEAN_MOTION_DDOT":0}]
