ONEWEB-0050             
1 45453U 20020AF  26033.09480528  .00002074  00000+0  21370-3 0  9993
2 45453  88.9197 251.6304 0005735  95.3086 264.8797 14.89854698320265
ONEWEB-0034             
1 45454U 20020AG  26033.30910229 -.00000129  00000+0 -39892-3 0  9993
2 45454  87.8822  47.8946 0001823  90.0334 270.1003 13.11420248284913
ONEWEB-0060             
1 45455U 20020AH  26033.28028075 -.00000175  00000+0 -52957-3 0  9998
2 45455  87.8809  47.9140 0001246  58.5100 301.6150 13.11415685284861
ONEWEB-0086             
1 45456U 20020AJ  26033.25909628  .00000528  00000+0  14532-2 0  9994
2 45456  87.8822  47.9028 0001097  94.6919 265.4335 13.11415676284924
ONEWEB-0088             
1 45457U 20020AK  26033.08445711  .00000155  00000+0  40026-3 0  9998
2 45457  87.8834  47.8983 0002057  85.0756 275.0607 13.11418214284837
ONEWEB-0102             
1 47258U 20100A   26033.19418231 -.00000136  00000+0 -41351-3 0  9990
2 47258  87.8942  17.4789 0001585  87.3386 272.7924 13.12441430247027
ONEWEB-0109             
1 47259U 20100B   26033.20264625 -.00000337  00000+0 -97182-3 0  9995
2 47259  87.8947  17.4489 0001790  89.9514 270.1820 13.12442414246859
ONEWEB-0110             
1 47260U 20100C   26033.00104850  .00000671  00000+0  18286-2 0  9994
2 47260  87.8941  17.4732 0001291  80.2761 279.8513 13.12447128246997
ONEWEB-0111             
1 47261U 20100D   26033.03153105  .00000167  00000+0  42813-3 0  9999
2 47261  87.8950  17.4861 0001753  81.7171 278.4157 13.12440439246835
ONEWEB-0114             
1 47262U 20100E   26032.98580083  .00000722  00000+0  19706-2 0  9993
2 47262  87.8944  17.4906 0002088  91.4620 268.6748 13.12446204246785
ONEWEB-0117             
1 47263U 20100F   26032.97732671 -.00000436  00000+0 -12482-2 0  9993
2 47263  87.8946  17.4874 0001784  85.9969 274.1363 13.12442909246792
ONEWEB-0118             
1 47264U 20100G   26033.23992921  .00000377  00000+0  10121-2 0  9990
2 47264  87.8948  17.4365 0002169  88.0206 272.1171 13.12444832247025
ONEWEB-0119             
1 47265U 20100H   26032.96038687 -.00000026  00000+0 -10748-3 0  9999
2 47265  87.8941  17.5211 0001835  84.9042 275.2296 13.12441574246966
ONEWEB-0120             
1 47266U 20100J   26032.98424111 -.00000336  00000+0 -96920-3 0  9993
2 47266  87.8935  17.5178 0001887  89.0326 271.1019 13.12443823246990
ONEWEB-0121             
1 47267U 20100K   26033.20095499 -.00000319  00000+0 -92112-3 0  9993
2 47267  87.8949  17.4472 0001640  81.8145 278.3169 13.12442618246938
ONEWEB-0122             
1 47268U 20100L   26032.96631097 -.00000268  00000+0 -77905-3 0  9992
2 47268  87.8950  17.4957 0001729  90.2944 269.8382 13.12441598246813
